start=new Date('2022-06-15T00:00:00.000Z').valueOf();
sats=[{"SITE":"AFETR","GP_ID":"206139781","TLE_LINE1":"1 49755U 21115AH  22165.38355538 -.00000082  00000-0  13020-4 0  9997","ARG_OF_PERICENTER":"44.3512","MEAN_MOTION_DDOT":"0.0000000000000","EPHEMERIS_TYPE":"0","MEAN_MOTION_DOT":"-0.00000082","REV_AT_EPOCH":"2957","FILE":"3495970","CENTER_NAME":"EARTH","LAUNCH_DATE":"2021-12-02","CLASSIFICATION_TYPE":"U","BSTAR":"0.00001302000000","RCS_SIZE":"LARGE","PERIAPSIS":"536.908","ECCENTRICITY":"0.00040850","MEAN_ELEMENT_THEORY":"SGP4","ELEMENT_SET_NO":"999","MEAN_ANOMALY":"315.7807","MEAN_MOTION":"15.08843587","TIME_SYSTEM":"UTC","TLE_LINE2":"2 49755  53.2175 153.7247 0004085  44.3512 315.7807 15.08843587 29573","NORAD_CAT_ID":"49755","DECAY_DATE":null,"OBJECT_ID":"2021-115AH","PERIOD":"95.437","REF_FRAME":"TEME","SEMIMAJOR_AXIS":"6917.869","COUNTRY_CODE":"US","OBJECT_TYPE":"PAYLOAD","INCLINATION":"53.2175","EPOCH":"2022-06-14T09:12:19.184832","APOAPSIS":"542.560","RA_OF_ASC_NODE":"153.7247","OBJECT_NAME":"STARLINK-3210"},{"RCS_SIZE":"LARGE","PERIAPSIS":"538.379","ECCENTRICITY":"0.00019910","LAUNCH_DATE":"2021-12-02","CENTER_NAME":"EARTH","CLASSIFICATION_TYPE":"U","BSTAR":"-0.00000885250000","MEAN_MOTION_DOT":"-0.00000429","EPHEMERIS_TYPE":"0","REV_AT_EPOCH":"2975","FILE":"3496199","SITE":"AFETR","GP_ID":"206171983","TLE_LINE1":"1 49756U 21115AJ  22165.67152461 -.00000429  00000-0 -88525-5 0  9999","ARG_OF_PERICENTER":"59.8383","MEAN_MOTION_DDOT":"0.0000000000000","EPOCH":"2022-06-14T16:06:59.726304","APOAPSIS":"541.134","RA_OF_ASC_NODE":"142.4409","OBJECT_NAME":"STARLINK-3207","COUNTRY_CODE":"US","OBJECT_TYPE":"PAYLOAD","INCLINATION":"53.2153","DECAY_DATE":null,"OBJECT_ID":"2021-115AJ","PERIOD":"95.438","REF_FRAME":"TEME","SEMIMAJOR_AXIS":"6917.892","MEAN_ELEMENT_THEORY":"SGP4","ELEMENT_SET_NO":"999","MEAN_ANOMALY":"300.2806","MEAN_MOTION":"15.08836345","TIME_SYSTEM":"UTC","TLE_LINE2":"2 49756  53.2153 142.4409 0001991  59.8383 300.2806 15.08836345 29757","NORAD_CAT_ID":"49756"},{"SITE":"AFETR","ARG_OF_PERICENTER":"49.4763","TLE_LINE1":"1 49757U 21115AK  22165.66416495  .00002752  00000-0  19089-3 0  9995","GP_ID":"206170736","MEAN_MOTION_DDOT":"0.0000000000000","MEAN_MOTION_DOT":"0.00002752","EPHEMERIS_TYPE":"0","REV_AT_EPOCH":"2975","FILE":"3496199","LAUNCH_DATE":"2021-12-02","CENTER_NAME":"EARTH","CLASSIFICATION_TYPE":"U","BSTAR":"0.00019089000000","RCS_SIZE":"LARGE","PERIAPSIS":"538.107","ECCENTRICITY":"0.00023090","MEAN_ELEMENT_THEORY":"SGP4","ELEMENT_SET_NO":"999","MEAN_ANOMALY":"310.6430","MEAN_MOTION":"15.08853437","TLE_LINE2":"2 49757  53.2155 142.4778 0002309  49.4763 310.6430 15.08853437 29759","TIME_SYSTEM":"UTC","NORAD_CAT_ID":"49757","DECAY_DATE":null,"OBJECT_ID":"2021-115AK","PERIOD":"95.437","REF_FRAME":"TEME","SEMIMAJOR_AXIS":"6917.839","COUNTRY_CODE":"US","OBJECT_TYPE":"PAYLOAD","INCLINATION":"53.2155","EPOCH":"2022-06-14T15:56:23.851680","APOAPSIS":"541.302","RA_OF_ASC_NODE":"142.4778","OBJECT_NAME":"STARLINK-3197"},{"PERIAPSIS":"538.076","RCS_SIZE":"LARGE","ECCENTRICITY":"0.00023560","CENTER_NAME":"EARTH","LAUNCH_DATE":"2021-12-02","CLASSIFICATION_TYPE":"U","BSTAR":"0.00029632000000","MEAN_MOTION_DOT":"0.00004433","EPHEMERIS_TYPE":"0","REV_AT_EPOCH":"2968","FILE":"3495970","SITE":"AFETR","MEAN_MOTION_DDOT":"0.0000000000000","GP_ID":"206140031","TLE_LINE1":"1 49758U 21115AL  22165.21520354  .00004433  00000-0  29632-3 0  9990","ARG_OF_PERICENTER":"52.9944","EPOCH":"2022-06-14T05:09:53.585856","OBJECT_NAME":"STARLINK-3194","APOAPSIS":"541.335","RA_OF_ASC_NODE":"144.4906","COUNTRY_CODE":"US","OBJECT_TYPE":"PAYLOAD","INCLINATION":"53.2151","DECAY_DATE":null,"OBJECT_ID":"2021-115AL","REF_FRAME":"TEME","SEMIMAJOR_AXIS":"6917.841","PERIOD":"95.437","ELEMENT_SET_NO":"999","MEAN_ELEMENT_THEORY":"SGP4","TIME_SYSTEM":"UTC","TLE_LINE2":"2 49758  53.2151 144.4906 0002356  52.9944 307.1263 15.08853005 29681","NORAD_CAT_ID":"49758","MEAN_ANOMALY":"307.1263","MEAN_MOTION":"15.08853005"},{"MEAN_MOTION_DOT":"0.00000690","REV_AT_EPOCH":"2975","EPHEMERIS_TYPE":"0","FILE":"3496199","SITE":"AFETR","MEAN_MOTION_DDOT":"0.0000000000000","TLE_LINE1":"1 49759U 21115AM  22165.66783113  .00000690  00000-0  61453-4 0  9993","ARG_OF_PERICENTER":"48.9876","GP_ID":"206171737","PERIAPSIS":"537.981","RCS_SIZE":"LARGE","ECCENTRICITY":"0.00025080","CLASSIFICATION_TYPE":"U","CENTER_NAME":"EARTH","LAUNCH_DATE":"2021-12-02","BSTAR":"0.00006145300000","OBJECT_ID":"2021-115AM","DECAY_DATE":null,"SEMIMAJOR_AXIS":"6917.851","REF_FRAME":"TEME","PERIOD":"95.437","ELEMENT_SET_NO":"999","MEAN_ELEMENT_THEORY":"SGP4","NORAD_CAT_ID":"49759","TLE_LINE2":"2 49759  53.2167 142.4614 0002508  48.9876 311.1333 15.08849769 29754","TIME_SYSTEM":"UTC","MEAN_MOTION":"15.08849769","MEAN_ANOMALY":"311.1333","EPOCH":"2022-06-14T16:01:40.609632","OBJECT_NAME":"STARLINK-3204","RA_OF_ASC_NODE":"142.4614","APOAPSIS":"541.451","OBJECT_TYPE":"PAYLOAD","COUNTRY_CODE":"US","INCLINATION":"53.2167"},{"OBJECT_ID":"2021-115AN","DECAY_DATE":null,"PERIOD":"95.437","SEMIMAJOR_AXIS":"6917.856","REF_FRAME":"TEME","MEAN_ELEMENT_THEORY":"SGP4","ELEMENT_SET_NO":"999","MEAN_MOTION":"15.08847999","MEAN_ANOMALY":"311.5800","NORAD_CAT_ID":"49760","TLE_LINE2":"2 49760  53.2197 143.8487 0002548  48.5411 311.5800 15.08847999 29719","TIME_SYSTEM":"UTC","EPOCH":"2022-06-14T08:31:15.099168","RA_OF_ASC_NODE":"143.8487","APOAPSIS":"541.484","OBJECT_NAME":"STARLINK-3199","OBJECT_TYPE":"PAYLOAD","COUNTRY_CODE":"US","INCLINATION":"53.2197","MEAN_MOTION_DOT":"0.00002681","EPHEMERIS_TYPE":"0","REV_AT_EPOCH":"2971","FILE":"3495970","SITE":"AFETR","TLE_LINE1":"1 49760U 21115AN  22165.35503587  .00002681  00000-0  18648-3 0  9995","GP_ID":"206140533","ARG_OF_PERICENTER":"48.5411","MEAN_MOTION_DDOT":"0.0000000000000","RCS_SIZE":"LARGE","PERIAPSIS":"537.958","ECCENTRICITY":"0.00025480","CLASSIFICATION_TYPE":"U","LAUNCH_DATE":"2021-12-02","CENTER_NAME":"EARTH","BSTAR":"0.00018648000000"},{"LAUNCH_DATE":"2021-12-02","CENTER_NAME":"EARTH","CLASSIFICATION_TYPE":"U","BSTAR":"0.00017111000000","PERIAPSIS":"538.035","RCS_SIZE":"LARGE","ECCENTRICITY":"0.00024200","SITE":"AFETR","MEAN_MOTION_DDOT":"0.0000000000000","GP_ID":"206170237","TLE_LINE1":"1 49761U 21115AP  22165.67521306  .00002437  00000-0  17111-3 0  9993","ARG_OF_PERICENTER":"47.2074","MEAN_MOTION_DOT":"0.00002437","REV_AT_EPOCH":"2975","EPHEMERIS_TYPE":"0","FILE":"3496199","COUNTRY_CODE":"US","OBJECT_TYPE":"PAYLOAD","INCLINATION":"53.2176","EPOCH":"2022-06-14T16:12:18.408384","OBJECT_NAME":"STARLINK-3203","APOAPSIS":"541.383","RA_OF_ASC_NODE":"142.4338","ELEMENT_SET_NO":"999","MEAN_ELEMENT_THEORY":"SGP4","TIME_SYSTEM":"UTC","TLE_LINE2":"2 49761  53.2176 142.4338 0002420  47.2074 312.9121 15.08851866 29750","NORAD_CAT_ID":"49761","MEAN_ANOMALY":"312.9121","MEAN_MOTION":"15.08851866","DECAY_DATE":null,"OBJECT_ID":"2021-115AP","REF_FRAME":"TEME","SEMIMAJOR_AXIS":"6917.844","PERIOD":"95.437"},{"ARG_OF_PERICENTER":"45.5650","TLE_LINE1":"1 49762U 21115AQ  22165.82607778  .00000237  00000-0  33031-4 0  9995","GP_ID":"206170487","MEAN_MOTION_DDOT":"0.0000000000000","SITE":"AFETR","FILE":"3496199","REV_AT_EPOCH":"2978","MEAN_MOTION_DOT":"0.00000237","EPHEMERIS_TYPE":"0","BSTAR":"0.00003303100000","CLASSIFICATION_TYPE":"U","LAUNCH_DATE":"2021-12-02","CENTER_NAME":"EARTH","ECCENTRICITY":"0.00028610","RCS_SIZE":"LARGE","PERIAPSIS":"537.763","MEAN_MOTION":"15.08841157","MEAN_ANOMALY":"314.5576","NORAD_CAT_ID":"49762","TIME_SYSTEM":"UTC","TLE_LINE2":"2 49762  53.2201 141.7522 0002861  45.5650 314.5576 15.08841157 29784","MEAN_ELEMENT_THEORY":"SGP4","ELEMENT_SET_NO":"999","PERIOD":"95.437","SEMIMAJOR_AXIS":"6917.877","REF_FRAME":"TEME","OBJECT_ID":"2021-115AQ","DECAY_DATE":null,"INCLINATION":"53.2201","OBJECT_TYPE":"PAYLOAD","COUNTRY_CODE":"US","RA_OF_ASC_NODE":"141.7522","APOAPSIS":"541.721","OBJECT_NAME":"STARLINK-3195","EPOCH":"2022-06-14T19:49:33.120192"},{"INCLINATION":"53.2196","COUNTRY_CODE":"US","OBJECT_TYPE":"PAYLOAD","OBJECT_NAME":"STARLINK-3198","APOAPSIS":"541.496","RA_OF_ASC_NODE":"143.8608","EPOCH":"2022-06-14T08:25:57.396864","TLE_LINE2":"2 49763  53.2196 143.8608 0002581  54.1320 305.9912 15.08851381 29716","TIME_SYSTEM":"UTC","NORAD_CAT_ID":"49763","MEAN_MOTION":"15.08851381","MEAN_ANOMALY":"305.9912","ELEMENT_SET_NO":"999","MEAN_ELEMENT_THEORY":"SGP4","REF_FRAME":"TEME","SEMIMAJOR_AXIS":"6917.846","PERIOD":"95.437","DECAY_DATE":null,"OBJECT_ID":"2021-115AR","BSTAR":"0.00015399000000","CENTER_NAME":"EARTH","LAUNCH_DATE":"2021-12-02","CLASSIFICATION_TYPE":"U","ECCENTRICITY":"0.00025810","PERIAPSIS":"537.925","RCS_SIZE":"LARGE","MEAN_MOTION_DDOT":"0.0000000000000","TLE_LINE1":"1 49763U 21115AR  22165.35135876  .00002164  00000-0  15399-3 0  9996","ARG_OF_PERICENTER":"54.1320","GP_ID":"206139782","SITE":"AFETR","FILE":"3495970","EPHEMERIS_TYPE":"0","MEAN_MOTION_DOT":"0.00002164","REV_AT_EPOCH":"2971"},{"MEAN_ANOMALY":"317.6678","MEAN_MOTION":"15.08839343","NORAD_CAT_ID":"49764","TIME_SYSTEM":"UTC","TLE_LINE2":"2 49764  53.2195 142.6060 0002574  42.4513 317.6678 15.08839343 30873","MEAN_ELEMENT_THEORY":"SGP4","ELEMENT_SET_NO":"999","PERIOD":"95.438","SEMIMAJOR_AXIS":"6917.882","REF_FRAME":"TEME","OBJECT_ID":"2021-115AS","DECAY_DATE":null,"INCLINATION":"53.2195","OBJECT_TYPE":"PAYLOAD","COUNTRY_CODE":"US","RA_OF_ASC_NODE":"142.6060","APOAPSIS":"541.528","OBJECT_NAME":"STARLINK-3206","EPOCH":"2022-06-14T15:13:59.903040","ARG_OF_PERICENTER":"42.4513","TLE_LINE1":"1 49764U 21115AS  22165.63472110 -.00001635  00000-0 -84615-4 0  9995","GP_ID":"206171984","MEAN_MOTION_DDOT":"0.0000000000000","SITE":"AFETR","FILE":"3496199","MEAN_MOTION_DOT":"-0.00001635","REV_AT_EPOCH":"3087","EPHEMERIS_TYPE":"0","BSTAR":"-0.00008461500000","CLASSIFICATION_TYPE":"U","CENTER_NAME":"EARTH","LAUNCH_DATE":"2021-12-02","ECCENTRICITY":"0.00025740","RCS_SIZE":"LARGE","PERIAPSIS":"537.967"}];
